{
  "norad_id": 59705,
  "name": "ZHIHUI TIANWANG-1 01A",
  "history": [
    {
      "epoch": "2026-03-26T20:45:01.911744Z",
      "apogee_km": 20248.316118919014,
      "perigee_km": 20115.812056528557,
      "latitude_deg": 3.005483317414159e-05,
      "longitude_deg": 38.412024196804495,
      "height_km": 20243.92271333517,
      "semi_major_axis_km": 26560.201087723784,
      "eccentricity": 0.00249441,
      "inclination_deg": 53.1235,
      "raan_deg": 173.9743,
      "arg_perigee_deg": 201.6203,
      "mean_anomaly_deg": 158.3018,
      "mean_motion_rev_day": 2.00565266
    }
  ]
}