{"fetched_at":"2026-03-30T06:02:59Z","count":15439,"tles":[{"name":"ZHIHUI TIANWANG-1 01A","line1":"1 59705U 24087A   26085.86460546 -.00000030  00000+0  00000+0 0  9999","line2":"2 59705  53.1235 173.9743 0024944 201.6203 158.3018  2.00565266 13651","category":"Other"}]}